NORAD_CAT_ID,OBJECT_NAME,OBJECT_TYPE,EPOCH,MEAN_MOTION,ECCENTRICITY,INCLINATION,RA_OF_ASC_NODE,ARG_OF_PERICENTER,MEAN_ANOMALY,BSTAR,MEAN_MOTION_DOT,MEAN_MOTION_DDOT,TLE_LINE0,TLE_LINE1,TLE_LINE2,SEMIMAJOR_AXIS,PERIOD,APOGEE,PERIGEE,DECAYED
53745.0,STARLINK-4656,PAYLOAD,2022-11-18 06:00:00,15.08840241,0.0001384,53.2164,284.6484,62.8785,138.7849,-0.0011292,-0.00018214,0.0,0 STARLINK-4656,1 53745U 22107AX  22322.25001157 -.00018214  00000-0 -11292-2 0  9993,2 53745  53.2164 284.6484 0001384  62.8785 138.7849 15.08840241 11527,6917.88,95.438,540.702,538.7869999999998,0.0
53745.0,STARLINK-4656,PAYLOAD,2022-11-18 14:00:01,15.08859072,0.0001453,53.215,283.146,70.2812,142.988,-0.0027917,-0.00044467,0.0,0 STARLINK-4656,1 53745U 22107AX  22322.58334491 -.00044467  00000-0 -27917-2 0  9999,2 53745  53.2150 283.1460 0001453  70.2812 142.9880 15.08859072  1300,6917.821999999999,95.436,540.692,538.682,0.0
53745.0,STARLINK-4656,PAYLOAD,2022-11-18 22:00:00,15.08847457,0.0001498,53.2159,281.6491,77.501,147.3588,-0.00031329,-5.272e-05,0.0,0 STARLINK-4656,1 53745U 22107AX  22322.91667824 -.00005272  00000-0 -31329-3 0  9999,2 53745  53.2159 281.6491 0001498  77.5010 147.3588 15.08847457 11629,6917.858,95.437,540.759,538.686,0.0
53745.0,STARLINK-4656,PAYLOAD,2022-11-19 14:00:01,15.08839558,0.0001409,53.2157,278.6565,69.6158,178.4228,-0.00094723,-0.00015331,0.0,0 STARLINK-4656,1 53745U 22107AX  22323.58334491 -.00015331  00000-0 -94723-3 0  9998,2 53745  53.2157 278.6565 0001409  69.6158 178.4228 15.08839558  1305,6917.882,95.438,540.721,538.7719999999998,0.0
53745.0,STARLINK-4656,PAYLOAD,2022-11-19 22:00:00,15.08851603,0.0001514,53.2158,277.1597,76.1545,183.4653,-0.0019875,-0.0003179,0.0,0 STARLINK-4656,1 53745U 22107AX  22323.91667824 -.00031790  00000-0 -19875-2 0  9995,2 53745  53.2158 277.1597 0001514  76.1545 183.4653 15.08851603  1308,6917.845,95.437,540.757,538.663,0.0
53745.0,STARLINK-4656,PAYLOAD,2022-11-20 06:00:00,15.08804892,0.0001685,53.2159,275.6649,67.1745,204.0454,0.0025724,0.0004085,0.0,0 STARLINK-4656,1 53745U 22107AX  22324.25001157  .00040850  00000-0  25724-2 0  9999,2 53745  53.2159 275.6649 0001685  67.1745 204.0454 15.08804892 11826,6917.988,95.44,541.018,538.687,0.0
53745.0,STARLINK-4656,PAYLOAD,2022-11-20 14:00:01,15.08841832,0.000158,53.216,274.16700000000003,70.26100000000001,212.5289,-0.00071816,-0.000117,0.0,0 STARLINK-4656,1 53745U 22107AX  22324.58334491 -.00011700  00000-0 -71816-3 0  9993,2 53745  53.2160 274.1670 0001580  70.2610 212.5289 15.08841832  1303,6917.875,95.437,540.8330000000002,538.6469999999998,0.0
53745.0,STARLINK-4656,PAYLOAD,2022-11-20 22:00:00,15.08864141,0.0001595,53.2162,272.6703,75.3483,219.027,-0.0020014,-0.0003202,0.0,0 STARLINK-4656,1 53745U 22107AX  22324.91667824 -.00032020  00000-0 -20014-2 0  9990,2 53745  53.2162 272.6703 0001595  75.3483 219.0270 15.08864141  1305,6917.807,95.436,540.775,538.568,0.0
53745.0,STARLINK-4656,PAYLOAD,2022-11-21 08:00:01,15.08811196,0.0001611,53.2163,270.8013,64.0118,334.8715,0.0033729,0.00053759,0.0,0 STARLINK-4656,1 53745U 22107AX  22325.33334491  .00053759  00000-0  33729-2 0  9995,2 53745  53.2163 270.8013 0001611  64.0118 334.8715 15.08811196 11997,6917.968000000003,95.439,540.948,538.719,0.0
53745.0,STARLINK-4656,PAYLOAD,2022-11-21 14:00:01,15.088442,0.0001549,53.2167,269.6775,69.5099,248.0581,-0.00010998,-2.038e-05,0.0,0 STARLINK-4656,1 53745U 22107AX  22325.58334491 -.00002038  00000-0 -10998-3 0  9992,2 53745  53.2167 269.6775 0001549  69.5099 248.0581 15.08844200  1303,6917.868,95.437,540.804,538.661,0.0
53745.0,STARLINK-4656,PAYLOAD,2022-11-21 22:00:00,15.08861352,0.000157,53.217,268.1808,73.4303,255.7297,0.00021333,3.111e-05,0.0,0 STARLINK-4656,1 53745U 22107AX  22325.91667824  .00003111  00000-0  21333-3 0  9994,2 53745  53.2170 268.1808 0001570  73.4303 255.7297 15.08861352  1300,6917.815,95.436,540.766,538.594,0.0
53745.0,STARLINK-4656,PAYLOAD,2022-11-22 14:00:01,15.08835749,0.0001401,53.2172,265.188,68.2285,284.2288,-0.0015385,-0.00024687,0.0,0 STARLINK-4656,1 53745U 22107AX  22326.58335648 -.00024687  00000-0 -15385-2 0  9996,2 53745  53.2172 265.1880 0001401  68.2285 284.2288 15.08835749 12189,6917.893,95.438,540.7280000000002,538.789,0.0
53745.0,STARLINK-4656,PAYLOAD,2022-11-22 22:00:00,15.088377599999998,0.0001394,53.2176,263.6918,70.4975,293.4675,-0.00041486,-6.884e-05,0.0,0 STARLINK-4656,1 53745U 22107AX  22326.91667824 -.00006884  00000-0 -41486-3 0  9998,2 53745  53.2176 263.6918 0001394  70.4975 293.4675 15.08837760  1309,6917.887,95.438,540.717,538.788,0.0
53745.0,STARLINK-4656,PAYLOAD,2022-11-23 08:00:01,15.08838372,0.0001530999999999,53.2172,261.8227,61.3003,47.1487,-0.00057307,-9.396e-05,0.0,0 STARLINK-4656,1 53745U 22107AX  22327.33334491 -.00009396  00000-0 -57307-3 0  9996,2 53745  53.2172 261.8227 0001531  61.3003  47.1487 15.08838372 12297,6917.885,95.438,540.809,538.691,0.0
53745.0,STARLINK-4656,PAYLOAD,2022-11-23 14:00:01,15.08820014,0.0001484,53.2175,260.699,70.7158,316.4344,-0.00041972,-6.958e-05,0.0,0 STARLINK-4656,1 53745U 22107AX  22327.58334491 -.00006958  00000-0 -41972-3 0  9995,2 53745  53.2175 260.6990 0001484  70.7158 316.4344 15.08820014  1304,6917.941,95.439,540.8330000000002,538.78,0.0
53745.0,STARLINK-4656,PAYLOAD,2022-11-23 22:00:00,15.08834775,0.0001548,53.2177,259.2031,72.7051,326.0039,-0.00091187,-0.00014769,0.0,0 STARLINK-4656,1 53745U 22107AX  22327.91667824 -.00014769  00000-0 -91187-3 0  9993,2 53745  53.2177 259.2031 0001548  72.7051 326.0039 15.08834775  1308,6917.896,95.438,540.832,538.69,0.0
53745.0,STARLINK-4656,PAYLOAD,2022-11-24 14:00:01,15.08825061,0.000152,53.2173,256.2103,72.8272,349.0501,0.001186,0.0001863,0.0,0 STARLINK-4656,1 53745U 22107AX  22328.58334491  .00018630  00000-0  11860-2 0  9996,2 53745  53.2173 256.2103 0001520  72.8272 349.0501 15.08825061 12485,6917.926,95.438,540.8430000000002,538.74,0.0
53745.0,STARLINK-4656,PAYLOAD,2022-11-24 22:00:00,15.08858562,0.0001575999999999,53.2172,254.7146,73.6995,359.7564,-0.001332,-0.00021435,0.0,0 STARLINK-4656,1 53745U 22107AX  22328.91667824 -.00021435  00000-0 -13320-2 0  9994,2 53745  53.2172 254.7146 0001576  73.6995 359.7564 15.08858562  1304,6917.824000000001,95.436,540.779,538.5980000000002,0.0
53745.0,STARLINK-4656,PAYLOAD,2022-11-25 14:00:01,15.08833231,0.0001450999999999,53.2166,251.7216,74.0345,22.6487,0.00060704,9.384e-05,0.0,0 STARLINK-4656,1 53745U 22107AX  22329.58334491  .00009384  00000-0  60704-3 0  9995,2 53745  53.2166 251.7216 0001451  74.0345  22.6487 15.08833231  1304,6917.901,95.438,540.77,538.762,0.0
53745.0,STARLINK-4656,PAYLOAD,2022-11-25 22:00:00,15.088594400000002,0.0001517,53.2164,250.2259,73.6217,34.6476,-0.0012350999999999,-0.00019901,0.0,0 STARLINK-4656,1 53745U 22107AX  22329.91667824 -.00019901  00000-0 -12351-2 0  9993,2 53745  53.2164 250.2259 0001517  73.6217  34.6476 15.08859440 12683,6917.821,95.436,540.735,538.637,0.0
53745.0,STARLINK-4656,PAYLOAD,2022-11-26 14:00:01,15.08837056,0.0001419,53.2158,247.2327,72.7335,58.7751,0.00074722,0.00011623,0.0,0 STARLINK-4656,1 53745U 22107AX  22330.58334491  .00011623  00000-0  74722-3 0  9991,2 53745  53.2158 247.2327 0001419  72.7335  58.7751 15.08837056 12783,6917.889,95.438,540.736,538.773,0.0
53745.0,STARLINK-4656,PAYLOAD,2022-11-26 22:00:00,15.08854491,0.0001559,53.2157,245.737,72.5922,70.5106,-0.0030439,-0.00048425,0.0,0 STARLINK-4656,1 53745U 22107AX  22330.91667824 -.00048425  00000-0 -30439-2 0  9995,2 53745  53.2157 245.7370 0001559  72.5922  70.5106 15.08854491  1302,6917.8359999999975,95.437,540.78,538.623,0.0
53745.0,STARLINK-4656,PAYLOAD,2022-11-27 06:00:00,15.08822096,0.0001617,53.2154,244.2417,64.8528,89.8437,0.0010841,0.00016999,0.0,0 STARLINK-4656,1 53745U 22107AX  22331.25001157  .00016999  00000-0  10841-2 0  9998,2 53745  53.2154 244.2417 0001617  64.8528  89.8437 15.08822096 12887,6917.935,95.439,540.919,538.681,0.0
53745.0,STARLINK-4656,PAYLOAD,2022-11-27 14:00:01,15.08800507,0.0001457,53.2153,242.7436,71.4642,94.823,0.0020504,0.0003246,0.0,0 STARLINK-4656,1 53745U 22107AX  22331.58334491  .00032460  00000-0  20504-2 0  9992,2 53745  53.2153 242.7436 0001457  71.4642  94.8230 15.08800507  1308,6918.001,95.44,540.874,538.8580000000002,0.0
53745.0,STARLINK-4656,PAYLOAD,2022-11-27 22:00:00,15.08835836,0.0001585,53.2154,241.2481,70.406,107.4384,-0.0011855,-0.00019104,0.0,0 STARLINK-4656,1 53745U 22107AX  22331.91667824 -.00019104  00000-0 -11855-2 0  9999,2 53745  53.2154 241.2481 0001585  70.4060 107.4384 15.08835836  1302,6917.893,95.438,540.855,538.6619999999998,0.0
53745.0,STARLINK-4656,PAYLOAD,2022-11-28 00:00:00,15.08828686,0.0001625,53.2152,240.8745,67.5264,203.2158,-0.0004763999999999,-7.859999999999999e-05,0.0,0 STARLINK-4656,1 53745U 22107AX  22332.00001157 -.00007860  00000-0 -47640-3 0  9999,2 53745  53.2152 240.8745 0001625  67.5264 203.2158 15.08828686 12992,6917.915,95.438,540.904,538.656,0.0
53745.0,STARLINK-4656,PAYLOAD,2022-11-28 14:00:01,15.08823881,0.0001506,53.2154,238.2543,70.3168,130.714,0.0020722,0.00032831,0.0,0 STARLINK-4656,1 53745U 22107AX  22332.58334491  .00032831  00000-0  20722-2 0  9997,2 53745  53.2154 238.2543 0001506  70.3168 130.7140 15.08823881 13082,6917.93,95.439,540.836,538.753,0.0
53745.0,STARLINK-4656,PAYLOAD,2022-11-28 22:00:01,15.0885335,0.0001607,53.2155,236.7589,68.3633,144.3149,-0.00099947,-0.00016165,0.0,0 STARLINK-4656,1 53745U 22107AX  22332.91668981 -.00016165  00000-0 -99947-3 0  9998,2 53745  53.2155 236.7589 0001607  68.3633 144.3149 15.08853350  1308,6917.84,95.437,540.816,538.5930000000002,0.0
53745.0,STARLINK-4656,PAYLOAD,2022-11-29 06:00:00,15.08857078,0.0001604,53.2154,235.2632,61.9925,162.2267,-0.0010366,-0.00016755,0.0,0 STARLINK-4656,1 53745U 22107AX  22333.25001157 -.00016755  00000-0 -10366-2 0  9994,2 53745  53.2154 235.2632 0001604  61.9925 162.2267 15.08857078 13180,6917.828,95.436,540.803,538.5840000000002,0.0
